#dP2019 10  5  0  0  0.00000000      96 __u+U ITR00 FIT  IAC
## 2073 518400.00000000   900.00000000 58761 0.0000000000000
+  117   C01C02C03C04C05C06C07C08C09C10C11C12C13C14C16C19C20
+        C21C22C23C24C25C26C27C28C29C30C32C33C34C35C36C37E01
+        E02E03E04E05E07E08E09E11E12E13E14E15E18E19E21E24E25
+        E26E27E30E31E33E36G01G02G03G04G05G06G07G08G09G10G11
+        G12G13G14G15G16G17G18G19G20G21G22G23G24G25G26G27G28
+        G29G30G31G32J01J02J03J07R01R02R03R05R06R07R08R09R11
+        R12R13R14R15R16R17R18R19R20R21R22R23R24R26R27  0  0
++        13 12 13 13 12  8  8  8  8  8  8  7  8  7  8  7  9
++         8  8  8  8  8  8  8  8  8  8  9  8  8  8  9  9  5
++         4  5  5  5  4  5  5  5  5  5  5  5  5  5  5  4  4
++         5  5  5  5  5  5  3  3  3  4  3  3  3  3  3  3  3
++         3  3  3  3  3  3  3  3  3  3  3  3  3  3  3  3  3
++         3  3  3  3  8  8  8 13  6  5  5  5 11  5  5  5  5
++         5  6  5  5  6  5  5  6  6  5  5  5  6  8  8  0  0
%c M  cc GPS ccc cccc cccc cccc cccc ccccc ccccc ccccc ccccc
%c cc cc ccc ccc cccc cccc cccc cccc ccccc ccccc ccccc ccccc
%f  0.0000000  0.000000000  0.00000000000  0.000000000000000
%f  0.0000000  0.000000000  0.00000000000  0.000000000000000
%i    0    0    0    0      0      0      0      0         0
%i    0    0    0    0      0      0      0      0         0
/* INFORMATION & ANALYSIS CENTER (IAC)            RAPID DATA
/* S/V CLOCKS ARE ALIGNED TO GNSS TIME                      
/* G:C1WC2W R:C1PC2P E:C1XC5X C:C2IC6I J:C1CC2S             
/* PCV:IGS14_2070 OL/AL:FES2004  NONE     YN ORB:CoN CLK:CoN
*  2019 10 05  0 45  0.00000000
PC01 -32289.934226  27086.280772    358.488745    -26.900371
PC02   4418.649513  41949.945460    410.260477    278.482744
PC03 -14842.112321  39451.566588    745.532563    216.978881
PC04 -39582.353311  14454.698660    312.017822   -385.798027
PC05  21863.790662  36055.311045    324.735303    110.628210
PC06 -24202.554069  25851.939911 -22820.415329    377.846929
PC07 -14049.290829  37520.656347 -12116.560391   -173.620331
PC08  -8082.222133  21210.415862  35641.128251    -11.764806
PC09  -8364.183139  26235.120041 -31801.089155     16.415231
PC10  -4102.395291  41732.402997    702.325163   -238.816227
PC11 -27858.484705   -273.171066    740.674060     75.200820
PC12 -10770.322780 -14251.690820 -21348.313007   -253.179814
PC13   5804.192975  29596.585357  29637.571514   -860.129172
PC14 -19088.670449   5355.519485  19640.532330    512.485956
PC16 -19755.632640  26597.911450 -26134.557947   -886.238607
PC19  19492.524721 -14598.556106 -13621.767465    210.196119
PC20  15868.914254   4033.373921 -22590.413250   -134.890106
PC21  -2643.137390 -20848.222999  18381.763815    274.206888
PC22  11908.356543 -25023.715948   3415.238771   -183.072108
PC23  -2765.447194  21273.695450 -17830.397763   -920.257950
PC24 -19241.941462 -14589.999295 -13964.346564   -888.447614
PC25 -15352.082243   5436.361649 -22656.522051   -369.284010
PC26 -12561.476300 -24801.085229   2239.598634    411.309276
PC27  10583.190583  14914.704501  21060.257533    201.159312
PC28 -10778.658345  14432.088670  21311.900119    195.575364
PC29  25559.878659  -6510.335403  -9128.126433    127.635405
PC30  25862.861066   5848.840432   8677.589248    203.344438
PC32   2811.470682  20811.428529 -18365.746750   -907.449607
PC33 -19447.535982  14586.848499  13686.720562   -441.479097
PC34 -25992.086780  -5771.135383  -8388.392189   -128.705361
PC35  10375.025226 -14817.341650 -21241.492171   -409.981572
PC36  15565.824805  -4910.367171  22667.709635   -932.906806
PC37  11689.309197  25195.969890  -2712.371195   -566.794582
PE01  16466.722880   6083.853328  23841.164851   -703.858981
PE02 -16462.442705  -6005.922065 -23846.305699     83.232726
PE03 -24120.577131   2466.203974  16965.169178   -218.227983
PE04  24069.513391 -17232.357514    -10.448134   -378.847890
PE05 -10039.155171 -13883.260120  24136.432341   -442.855899
PE07  -9824.862075  22019.553036 -17158.123687   -277.645271
PE08 -23870.074332  17489.887851   -136.982109   6282.374443
PE09   9689.489855 -22015.829964  17264.464880   6295.397179
PE11   -475.135299 -17500.550235 -23876.283335   5566.127139
PE12  19731.334559  -6573.894592 -21060.530608   6165.724023
PE13    424.700561  17379.775378  23959.816761    393.755756
PE14  19251.431906 -18057.566581 -15699.278385   -744.663231
PE15 -19408.689981   6843.324331  21276.174551    892.845060
PE18 -24319.304394   9014.211860   4038.409225   -839.080245
PE19  23176.823033   -787.483049 -18394.862932     -3.601122
PE21  10689.821652  24709.033415  12302.773861   -558.494732
PE24   1515.696254 -28860.441232   6366.212107   5836.715301
PE25 -10631.098761 -24780.433524 -12203.707736   1657.717460
PE26  20014.488903  17944.398937  12410.557477   4031.063999
PE27  -1418.288247  28842.087287  -6489.097893    373.595972
PE30 -12773.767774  16012.464092 -21369.390198   4493.200026
PE31  12670.154198 -16030.444573  21435.003266   -469.224830
PE33  27913.267893   7738.211497  -6104.772343   -470.773453
PE36 -20051.884110 -17750.089089 -12600.906686    653.750207
PG01 -21826.083499 -13447.342898   7343.954607   -151.346605
PG02  11484.175840  20724.315450  12746.869701   -319.155310
PG03 -14260.987045  -5346.899675  21707.401900    -18.450965
PG04    424.880626 -16356.623974 -21118.982030    -12.017014
PG05   4640.107229  22976.828405 -12436.634881     -2.021276
PG06  -2511.595018  16568.176932  20641.545198    -79.532740
PG07 -18926.718292    238.047841 -18539.920291   -120.318245
PG08 -17255.458649  -7754.294394 -18694.149287     -8.793217
PG09 -25470.413482   7393.878408   1437.565588    -48.252395
PG10  11424.331785 -21929.970371  -9333.958141    -80.960122
PG11 -24809.941293  -8899.126782  -1930.562780   -487.684489
PG12  11561.982120  10819.056459  21138.577628    197.321015
PG13   7576.766898  13699.230515 -21580.807593    -40.673553
PG14   7303.807754 -16100.130394  20093.175512    -57.840247
PG15  18881.977616   6537.960290 -17961.960365   -282.205796
PG16   -648.736261 -23750.886780 -11590.846215    -80.267530
PG17 -16747.305449  14553.120300  14952.358568    138.143722
PG18 -19786.249798 -17764.654415  -1610.290698     90.693034
PG19 -11006.651607  15008.831774  18660.745488   -258.163056
PG20  14227.480375 -14298.885504 -17291.319912    527.097578
PG21  15774.838899  -5483.861754 -19822.477314   -107.698931
PG22 -12764.494453 -13301.930926  19370.730977   -761.110658
PG23 -23985.413047  -1122.762983  12112.222692   -163.244978
PG24  22344.907533  13896.746749   4630.851871     -2.992576
PG25  15649.110340  -5321.620117  20519.286394    -14.474867
PG26   4149.223164 -26103.310311  -1163.270536     54.206221
PG27  -4578.721891 -14149.752155 -22118.243831    -77.165226
PG28 -12573.685636  21831.300182  -7971.121178    760.133769
PG29  26037.771207  -4048.602019   3407.871280     79.925093
PG30 -11054.331999  11078.466331 -21426.821873    -54.728186
PG31   1402.532993 -17735.472477  19564.402400      5.848821
PG32  16081.298264 -15683.987967  14133.490059     80.317424
PJ01 -32170.409778  26522.749364  11255.240181   -341.695604
PJ02 -18835.609366  25000.302226 -23820.435393     -5.179092
PJ03 -30910.758328  25817.358666  17515.303638     -3.192824
PJ07 -25402.923648  33646.961065    -11.991469     -0.114159
PR01   2371.850905  13348.274595 -21607.304216     50.695957
PR02  16084.101972  -4461.999983 -19233.656006    391.293929
PR03  18130.472035 -17267.529665  -4712.475678      2.609245
PR05  -4073.752422 -11359.278226  22474.538868     36.932077
PR06 -16493.088411   5557.093024  18644.255251    163.178656
PR07 -18090.273657  17507.509977   4269.565690    -27.563161
PR08  -9890.928294  20071.060822 -12211.504385     15.277587
PR09 -12775.023065  -4958.980145 -21510.569016     94.073112
PR11   2894.898299  23317.996509  -9844.061721    -81.587529
PR12  10928.189176  22025.044620   6863.353991     67.423508
PR13  12997.170551   7566.083678  20592.180160    -29.244313
PR14   7391.725900 -10849.776382  21893.206283     43.666352
PR15  -2385.557219 -23030.551501  10735.255476    104.255784
PR16 -11411.879916 -21623.450905  -7077.377193      3.125623
PR17  19171.303946  -3763.956870 -16421.411302    265.640169
PR18   2847.707386 -10129.003910 -23224.025790      9.783339
PR19 -14456.109998 -11401.033423 -17650.163224    -57.220868
PR20 -24873.196124  -5738.257855    -34.561508   -392.400771
PR21 -18547.668842   4073.048598  17009.530575    -76.645500
PR22    188.399034  10672.857351  23162.927346   -178.525909
PR23  19368.767002  10099.277248  13171.566592    258.177688
PR24  25057.061954   4285.634749  -2112.983399   -185.392309
PR26 -24341.133011  -6685.764677  -3532.338256     -1.052527
PR27    542.893354 -20654.401279  14908.096019    126.255595
EOF
